const data = [
"1 24876U 97035A   22076.12507655  .00000023  00000+0  00000+0 0  9992",
"2 24876  55.4964 159.2755 0056302  52.7383 307.8233  2.00563509180803",
"1 26360U 00025A   22076.62164602  .00000024  00000+0  00000+0 0  9992",
"2 26360  53.9854  82.6591 0050606 183.2560 260.6190  2.00552059160139",
"1 26407U 00040A   22076.62831963  .00000031  00000+0  00000+0 0  9990",
"2 26407  55.5274 276.9027 0169339 286.2759   4.1440  2.00561461158802",
"1 27663U 03005A   22076.26359030  .00000033  00000+0  00000+0 0  9991",
"2 27663  55.5761 276.7192 0126330  40.2878 127.7070  2.00570008140161",
"1 27704U 03010A   22076.71780212 -.00000067  00000+0  00000+0 0  9991",
"2 27704  54.9912  27.0208 0247184 303.2053  52.1880  2.00575954138961",
"1 28129U 03058A   22076.31236935  .00000027  00000+0  00000+0 0  9994",
"2 28129  53.7984  85.2854 0072198 311.8459  47.5880  2.00573461133647",
"1 28190U 04009A   22076.61900250 -.00000054  00000+0  00000+0 0  9991",
"2 28190  56.0554 337.6647 0088522 116.3655 106.3405  2.00562141131808",
"1 28474U 04045A   22076.12126370 -.00000067  00000+0  00000+0 0  9999",
"2 28474  55.3198  27.1493 0208455 277.7482 213.5623  2.00569408127281",
"1 28868U 05036A   22076.63311328 -.00000076  00000+0  00000+0 0  9992",
"2 28868   0.3278  93.9941 0002921 283.0049 278.7847  1.00272250 30880",
"1 28874U 05038A   22076.52370029 -.00000051  00000+0  00000+0 0  9995",
"2 28874  56.1253 335.0985 0137747 274.4044 259.3867  2.00552237120694",
"1 28899U 05044A   22077.09858497  .00000012  00000+0  00000+0 0  9998",
"2 28899   3.4332  36.4878 0002898 328.0891 270.4405  1.00271618 59931",
"1 29486U 06042A   22076.45823028  .00000013  00000+0  00000+0 0  9992",
"2 29486  54.7281 212.9304 0103675  20.7575  25.3134  2.00559725113252",
"1 29601U 06052A   22075.84203892  .00000035  00000+0  00000+0 0  9999",
"2 29601  55.5805 275.6702 0085006  71.7025 289.2492  2.00574070112250",
"1 29670U 06062A   22076.40871094  .00000052  00000+0  00000+0 0  9993",
"2 29670  64.7821 246.2332 0024349 347.7776  56.4471  2.13110614118498",
"1 32260U 07047A   22076.15190400  .00000033  00000+0  00000+0 0  9992",
"2 32260  53.2874 144.3683 0137433  61.4613 299.9899  2.00553734105667",
"1 32275U 07052A   22076.44969733 -.00000061  00000+0  00000+0 0  9991",
"2 32275  66.0834   7.7222 0003735 281.9332 316.6004  2.13104073112009",
"1 32276U 07052B   22076.48077071 -.00000060  00000+0  00000+0 0  9990",
"2 32276  66.0970   7.8207 0011982 327.8473 243.0810  2.13103474112006",
"1 32384U 07062A   22076.32453948 -.00000052  00000+0  00000+0 0  9996",
"2 32384  56.2416 335.8557 0017556 132.6800 122.6755  2.00556650104367",
"1 32393U 07065A   22076.98005022  .00000049  00000+0  00000+0 0  9992",
"2 32393  64.4021 244.5482 0005062  77.1319  97.5021  2.13103096110729",
"1 32395U 07065C   22076.58763075  .00000049  00000+0  00000+0 0  9999",
"2 32395  64.4102 244.6174 0016435   8.1551   1.3564  2.13102983110659",
"1 32711U 08012A   22076.06936350  .00000010  00000+0  00000+0 0  9993",
"2 32711  54.4864 211.9028 0158895 229.6122 128.9500  2.00562088102605",
"1 35752U 09043A   22076.27209868  .00000036  00000+0  00000+0 0  9994",
"2 35752  55.0017  89.2380 0056795  56.3777 108.2632  2.00562358 92216",
"1 36111U 09070A   22076.53536749  .00000070  00000+0  00000+0 0  9992",
"2 36111  64.3290 124.2107 0005017 300.6626  59.6722  2.13099153 95380",
"1 36112U 09070B   22076.54864102  .00000070  00000+0  00000+0 0  9991",
"2 36112  64.3120 124.0883 0004847 184.0831 312.9981  2.13101313 95388",
"1 36287U 10001A   22076.89782602 -.00000281  00000+0  00000+0 0  9997",
"2 36287   1.9218  48.5010 0002663   5.7167 224.8657  1.00273993 44590",
"1 36400U 10007A   22076.49194743 -.00000061  00000+0  00000+0 0  9995",
"2 36400  65.9753   6.6092 0026917 347.0199 148.2234  2.13114161 93726",
"1 36401U 10007B   22076.54940124 -.00000060  00000+0  00000+0 0  9993",
"2 36401  65.9709   6.5699 0021832   3.0873 169.4460  2.13103732 93738",
"1 36402U 10007C   22076.49349723 -.00000061  00000+0  00000+0 0  9997",
"2 36402  65.9582   6.5239 0002157 335.1668 102.0305  2.13106385 93736",
"1 36585U 10022A   22076.40439457  .00000033  00000+0  00000+0 0  9999",
"2 36585  54.8613 271.2307 0103584  56.0408 319.8005  2.00560594 86452",
"1 36828U 10036A   22076.73229059 -.00000148  00000+0  00000+0 0  9993",
"2 36828  54.1920 177.0698 0027575 183.1860 187.3398  1.00272765 42668",
"1 37139U 10041C   22076.54833891  .00000048  00000+0  00000+0 0  9997",
"2 37139  64.0010 243.6841 0030166  14.3636  47.9885  2.13100731 89795",
"1 37158U 10045A   22076.49341156 -.00000109  00000+0  00000+0 0  9993",
"2 37158  42.2342 134.6612 0749870 270.0494  90.6197  1.00281037 42175",
"1 37210U 10057A   22076.90175083 -.00000113  00000+0  00000+0 0  9990",
"2 37210   1.0058  55.6313 0003433 147.5225  96.9351  1.00271520 41715",
"1 37256U 10068A   22077.22080704 -.00000164  00000+0  00000+0 0  9999",
"2 37256  50.3732 290.7368 0017909 182.8448 250.3033  1.00278657 41233",
"1 37372U 11009A   22076.52124027 -.00000060  00000+0  00000+0 0  9998",
"2 37372  65.9515   6.4527 0016161 234.7408 329.8106  2.13063337 86003",
"1 37384U 11013A   22077.22808829 -.00000154  00000+0  00000+0 0  9997",
"2 37384  60.1645  55.1581 0019397 196.1543 115.3177  1.00279970 40107",
"1 37605U 11022A   22077.16785690  .00000083  00000+0  00000+0 0  9996",
"2 37605   0.0292 263.8919 0006037  30.5336 356.7605  1.00273299 39670",
"1 37753U 11036A   22076.55110264 -.00000058  00000+0  00000+0 0  9999",
"2 37753  56.5661  32.2822 0113970  49.9848 156.6737  2.00564790 78135",
"1 37763U 11038A   22077.22640194 -.00000082  00000+0  00000+0 0  9994",
"2 37763  54.4760 179.5476 0090594 226.0222 303.8407  1.00254252 39082",
"1 37846U 11060A   22076.15736522 -.00000068  00000+0  00000+0 0  9997",
"2 37846  56.9639  23.8454 0004131 352.6317   7.3440  1.70475042 64648",
"1 37847U 11060B   22075.09826889 -.00000069  00000+0  00000+0 0  9997",
"2 37847  56.9643  23.8737 0005316 330.2485 146.2859  1.70475405 64631",
"1 37867U 11064A   22076.58462263  .00000070  00000+0  00000+0 0  9991",
"2 37867  64.6192 125.5300 0022475 238.3780  64.4625  2.13101832 80723",
"1 37868U 11064B   22076.43398709  .00000069  00000+0  00000+0 0  9997",
"2 37868  64.6268 125.6001 0019965 240.1431 125.2998  2.13101688 80684",
"1 37869U 11064C   22076.37865574  .00000069  00000+0  00000+0 0  9990",
"2 37869  64.6340 125.6077 0024147 256.9745  23.9441  2.13101793 80684",
"1 37948U 11073A   22076.36565257 -.00000112  00000+0  00000+0 0  9992",
"2 37948  50.4889 290.3784 0077015 217.7256 254.3959  1.00273966 37832",
"1 37951U 11074B   22076.90305911 -.00000045  00000+0  00000+0 0  9991",
"2 37951   4.7875  99.4865 0003524 280.2967 287.7623  1.00270191 37621",
"1 38091U 12008A   22077.18938322  .00000057  00000+0  00000+0 0  9996",
"2 38091   1.3647  64.7678 0014359 315.7442 282.0176  1.00277313 36919",
"1 38250U 12018A   22076.18975563 -.00000080  00000+0  00000+0 0  9998",
"2 38250  56.7179 356.6074 0022736 257.9079  13.9334  1.86234344 67365",
"1 38251U 12018B   22076.43149395 -.00000079  00000+0  00000+0 0  9991",
"2 38251  56.6359 355.9301 0013344 264.6308 213.5503  1.86234536 67375",
"1 38652U 12036A   22076.36841532  .00000031  00000+0  00000+0 0  9997",
"2 38652   0.0614 297.5373 0001941  49.8218 325.1553  1.00271157 28918",
"1 38775U 12050B   22077.15708163  .00000058  00000+0  00000+0 0  9998",
"2 38775  55.3459 114.7579 0014414 318.4460 122.8385  1.86231289 64769",
"1 38779U 12051B   22076.88640043 -.00000167  00000+0  00000+0 0  9996",
"2 38779   0.0637 261.4733 0001711   4.5128 311.5329  1.00273470 34553",
"1 38833U 12053A   22076.74735461  .00000012  00000+0  00000+0 0  9991",
"2 38833  53.5394 207.1059 0122269  45.7627 315.1947  2.00560669 68304",
"1 38857U 12055A   22076.19765892  .00000027  00000+0  00000+0 0  9995",
"2 38857  55.1091 144.2350 0004510 259.1933 100.8369  1.70473678 58671",
"1 38858U 12055B   22074.99475085  .00000018  00000+0  00000+0 0  9994",
"2 38858  55.1089 144.2695 0002095 248.7502 111.3002  1.70473955 58515",
"1 38953U 12059A   22076.88657487 -.00000177  00000+0  00000+0 0  9999",
"2 38953   1.7608  84.5610 0013228 287.9325 206.1672  1.00273289 34348",
"1 38977U 12061A   22077.29711416 -.00000131  00000+0  00000+0 0  9997",
"2 38977   7.0956  63.2823 0002826 351.7961 211.4015  1.00272306 34616",
"1 39155U 13019A   22077.16104700  .00000071  00000+0  00000+0 0  9990",
"2 39155  64.7832 125.9185 0022968 234.7194 194.7409  2.13101842 69217",
"1 39166U 13023A   22076.10857676 -.00000046  00000+0  00000+0 0  9990",
"2 39166  55.7565 331.5236 0102452  36.4001 324.3456  2.00566499 64739",
"1 39199U 13034A   22077.11646562  .00000110  00000+0  00000+0 0  9991",
"2 39199  32.2267  86.7672 0018577 187.9405 357.9339  1.00272115 32084",
"1 39533U 14008A   22076.60042288  .00000013  00000+0  00000+0 0  9995",
"2 39533  53.6360 212.6080 0057350 205.8103 153.8610  2.00575500 58546",
"1 39617U 14011B   22077.19354664  .00000153  00000+0  00000+0 0  9996",
"2 39617   0.0747 306.5831 0002808  38.7062 291.6305  1.00275179 29308",
"1 39620U 14012A   22076.45319745 -.00000061  00000+0  00000+0 0  9999",
"2 39620  65.8448   6.2202 0014872 325.9353 315.0565  2.13103394 62145",
"1 39635U 14017A   22077.17549510  .00000103  00000+0  00000+0 0  9991",
"2 39635  28.9290 266.6217 0020464 178.4233 208.7962  1.00272316 29223",
"1 39727U 14023A   22077.10401323 -.00000269  00000+0  00000+0 0  9996",
"2 39727   1.2849  73.5353 0002621 326.1915 268.0279  1.00275840546947",
"1 39741U 14026A   22075.88605174 -.00000060  00000+0  00000+0 0  9997",
"2 39741  56.5293  31.8341 0028759 304.5999  55.1176  2.00562518 57383",
"1 40001U 14032A   22075.61570392 -.00000064  00000+0  00000+0 0  9993",
"2 40001  65.7848   6.1156 0005274 222.4501 354.9521  2.13102458 60346",
"1 40105U 14045A   22076.47562850  .00000033  00000+0  00000+0 0  9992",
"2 40105  54.6701 150.4765 0019515 109.6966 250.5811  2.00571540 54938",
